COSMOS 2413 (712)       
1 28509U 04053B   14299.57027568  .00000029  00000-0  10000-3 0  7646
2 28509  63.1570 211.4630 0005443 177.8957  28.2826  2.13101909 76529
COSMOS 2419 (714)       
1 28915U 05050A   14299.64818834  .00000061  00000-0  00000+0 0  5231
2 28915  65.0868  98.4125 0014713 358.4409 258.9749  2.13107496 68773
COSMOS 2425 (716)       
1 29670U 06062A   14299.70665522 -.00000017  00000-0  10000-3 0  2217
2 29670  65.8391 337.2692 0020745 340.0041  30.9716  2.13105034 60988
COSMOS 2426 (717)       
1 29671U 06062B   14299.64507191 -.00000017  00000-0  10000-3 0  2432
2 29671  65.8559 337.3397 0017955 172.2579  16.6588  2.13102970 60982
COSMOS 2424 (715)       
1 29672U 06062C   14300.28734888 -.00000018  00000-0  10000-3 0  2476
2 29672  65.8412 337.2575 0017401 171.7206 327.9775  2.13102297 60994
COSMOS 2433 (720)       
1 32275U 07052A   14299.70851049  .00000061  00000-0  10000-3 0  9689
2 32275  65.1014  98.1692 0001986 194.1222   8.7255  2.13105025 54496
COSMOS 2432 (719)       
1 32276U 07052B   14300.25185528  .00000064  00000-0  10000-3 0  9521
2 32276  65.1131  98.2068 0010151 346.7293 228.2049  2.13104441 54505
COSMOS 2434 (721)       
1 32393U 07065A   14299.62589120 -.00000018  00000-0  00000+0 0  8017
2 32393  65.4616 336.8787 0003479 147.1841 249.9509  2.13102857 53208
COSMOS 2436 (723)       
1 32395U 07065C   14299.64836083 -.00000018  00000-0  10000-3 0  7186
2 32395  65.4747 336.9111 0015803 346.3402 159.9805  2.13102917 53135
COSMOS 2443 (725)       
1 33379U 08046B   14299.65698578  .00000060  00000-0  10000-3 0  7259
2 33379  65.0274  97.6465 0020130 178.7729 257.0588  2.13101551 47369
COSMOS 2456 (730)       
1 36111U 09070A   14300.39951204  .00000026  00000-0  00000+0 0  4407
2 36111  64.2162 216.6111 0005126 311.6025 125.2540  2.13103162 37889
COSMOS 2457 (733)       
1 36112U 09070B   14299.74073219  .00000027  00000-0  00000+0 0  4080
2 36112  64.1983 216.5735 0006596 169.3954 255.2666  2.13101662 37877
COSMOS 2458 (734)       
1 36113U 09070C   14299.66846648  .00000027  00000-0  10000-3 0  4250
2 36113  64.2042 216.5776 0001246 336.7228  79.1208  2.13102030 37876
COSMOS 2459 (731)       
1 36400U 10007A   14300.57141028  .00000064  00000-0  10000-3 0  3467
2 36400  65.0059  97.3680 0027673 357.4831  18.1081  2.13102482 36246
COSMOS 2461 (735)       
1 36401U 10007B   14299.87359183  .00000061  00000-0  10000-3 0  3312
2 36401  64.9986  97.3780 0007640  92.1803  18.5676  2.13102525 36229
COSMOS 2460 (732)       
1 36402U 10007C   14300.34261410  .00000063  00000-0  10000-3 0  3461
2 36402  64.9892  97.3469 0002608 130.9913  22.3369  2.13102122 36238
COSMOS 2466 (738)       
1 37137U 10041A   14300.29942057 -.00000020  00000-0  10000-3 0  2218
2 37137  65.0455 337.2687 0021156 159.5452 258.1751  2.13102491 32311
COSMOS 2465 (737)       
1 37138U 10041B   14299.64696413 -.00000019  00000-0  00000+0 0  2287
2 37138  65.0624 337.3526 0035803 170.9533 288.1347  2.13102854 32298
COSMOS 2464 (736)       
1 37139U 10041C   14300.02567544 -.00000020  00000-0  00000+0 0  2063
2 37139  65.0646 337.3302 0019547   9.8580 154.2730  2.13102750 32300
COSMOS 2471 (701K)      
1 37372U 11009A   14300.21547274  .00000062  00000-0  00000+0 0  1026
2 37372  64.9868  97.3040 0010398 219.8775 325.1582  2.13193798 28502
COSMOS 2474 (742)       
1 37829U 11055A   14300.27539028  .00000026  00000-0  00000+0 0  9217
2 37829  64.5412 216.7795 0008523 259.3255 306.4504  2.13102039 23872
COSMOS 2476 (744)       
1 37867U 11064A   14299.71549769  .00000027  00000-0  00000+0 0  8780
2 37867  64.5205 216.8956 0017096 253.3331 288.4708  2.13102132 23215
COSMOS 2477 (745)       
1 37868U 11064B   14300.44652909  .00000026  00000-0  00000+0 0  8773
2 37868  64.5284 216.9048 0015321 254.8339 307.4144  2.13101972 23182
COSMOS 2475 (743)       
1 37869U 11064C   14299.45435470  .00000027  00000-0  00000+0 0  8764
2 37869  64.5354 216.9202 0022009 280.7926 196.0094  2.13102347 23176
COSMOS 2478 (746)       
1 37938U 11071A   14299.86614348  .00000061  00000-0  00000+0 0  8462
2 37938  65.0175  97.5121 0012474 228.4995 189.8209  2.13102453 22796
COSMOS 2485 (747)       
1 39155U 13019A   14299.59809502  .00000028  00000-0  00000+0 0  4400
2 39155  64.6887 216.7192 0017212 247.9694 249.0739  2.13102246 11687
COSMOS 2492 (754)       
1 39620U 14012A   14297.91918159  .00000056  00000-0  10000-3 0  1429
2 39620  64.8735  97.5010 0013766 339.5442 340.5276  2.13103714  4610
COSMOS 2500 (755)       
1 40001U 14032A   14300.18225843  .00000062  00000-0  00000+0 0  1265
2 40001  64.8158  97.4947 0007356 184.4515 296.4989  2.13103129  2863
